{
    "links": {
        "self": "http://www.neowsapp.com/rest/v1/neo/3277639?api_key=iIulBulltgU6a56xZRHN4H3l9WmuAYTsLGpBGhQ2"
    },
    "id": "3277639",
    "neo_reference_id": "3277639",
    "name": "(2005 JN3)",
    "designation": "2005 JN3",
    "nasa_jpl_url": "http://ssd.jpl.nasa.gov/sbdb.cgi?sstr=3277639",
    "absolute_magnitude_h": 20.9,
    "estimated_diameter": {
        "kilometers": {
            "estimated_diameter_min": 0.1756123185,
            "estimated_diameter_max": 0.3926810818
        },
        "meters": {
            "estimated_diameter_min": 175.6123184804,
            "estimated_diameter_max": 392.6810818086
        },
        "miles": {
            "estimated_diameter_min": 0.1091204019,
            "estimated_diameter_max": 0.2440006365
        },
        "feet": {
            "estimated_diameter_min": 576.1559189633,
            "estimated_diameter_max": 1288.3238004408
        }
    },
    "is_potentially_hazardous_asteroid": false,
    "close_approach_data": [
        {
            "close_approach_date": "2005-07-15",
            "close_approach_date_full": "2005-Jul-15 00:19",
            "epoch_date_close_approach": 1121386740000,
            "relative_velocity": {
                "kilometers_per_second": "13.5945602658",
                "kilometers_per_hour": "48940.4169567619",
                "miles_per_hour": "30409.6718584946"
            },
            "miss_distance": {
                "astronomical": "0.3194777692",
                "lunar": "124.2768522188",
                "kilometers": "47793193.784671604",
                "miles": "29697313.5350679752"
            },
            "orbiting_body": "Earth"
        }
    ],
    "orbital_data": {
        "orbit_id": "7",
        "orbit_determination_date": "2017-04-06 09:11:01",
        "first_observation_date": "2005-05-04",
        "last_observation_date": "2005-05-06",
        "data_arc_in_days": 2,
        "observations_used": 15,
        "orbit_uncertainty": "9",
        "minimum_orbit_intersection": ".110131",
        "jupiter_tisserand_invariant": "3.489",
        "epoch_osculation": "2453496.5",
        "eccentricity": ".5111554324532417",
        "semi_major_axis": "2.175445326618046",
        "inclination": "9.227885410567621",
        "ascending_node_longitude": "205.9370488799172",
        "orbital_period": "1171.981311534527",
        "perihelion_distance": "1.063454629912215",
        "perihelion_argument": "48.85751154069806",
        "aphelion_distance": "3.287436023323877",
        "perihelion_time": "2453544.837981408824",
        "mean_anomaly": "345.1519191168741",
        "mean_motion": ".30717213359711",
        "equinox": "J2000",
        "orbit_class": {
            "orbit_class_type": "AMO",
            "orbit_class_description": "Near-Earth asteroid orbits similar to that of 1221 Amor",
            "orbit_class_range": "1.017 AU < q (perihelion) < 1.3 AU"
        }
    },
    "is_sentry_object": false
}